[{"OBJECT_NAME":"STARLINK-4643","OBJECT_ID":"2022-177E","EPOCH":"2026-03-09T05:27:46.379232","MEAN_MOTION":15.02535728,"ECCENTRICITY":0.00010578,"INCLINATION":43.0007,"RA_OF_ASC_NODE":136.0298,"ARG_OF_PERICENTER":272.5353,"MEAN_ANOMALY":87.5368,"EPHEMERIS_TYPE":0,"CLASSIFICATION_TYPE":"U","NORAD_CAT_ID":54824,"ELEMENT_SET_NO":999,"REV_AT_EPOCH":17688,"BSTAR":8.166246e-6,"MEAN_MOTION_DOT":-9.3e-7,"MEAN_MOTION_DDOT":0},{"OBJECT_NAME":"KOMPSAT-7","OBJECT_ID":"2025-279A","EPOCH":"2026-03-09T20:54:17.078400","MEAN_MOTION":15.01421798,"ECCENTRICITY":0.00098953,"INCLINATION":97.6738,"RA_OF_ASC_NODE":18.4558,"ARG_OF_PERICENTER":343.5135,"MEAN_ANOMALY":16.5766,"EPHEMERIS_TYPE":0,"CLASSIFICATION_TYPE":"U","NORAD_CAT_ID":66820,"ELEMENT_SET_NO":999,"REV_AT_EPOCH":1472,"BSTAR":0.00031598708,"MEAN_MOTION_DOT":4.022e-5,"MEAN_MOTION_DDOT":0}]
