STARLINK-4643           
1 54824U 22177E   26068.22762013 -.00000093  00000+0  81662-5 0  9997
2 54824  43.0007 136.0298 0001057 272.5353  87.5368 15.02535728176883
KOMPSAT-7               
1 66820U 25279A   26068.87103100  .00004022  00000+0  31599-3 0  9996
2 66820  97.6738  18.4558 0009895 343.5135  16.5766 15.01421798 14723
